[{"OBJECT_NAME":"SJ-11-05","OBJECT_ID":"2013-035A","EPOCH":"2026-03-09T22:35:58.811424","MEAN_MOTION":14.64778924,"ECCENTRICITY":0.0009824,"INCLINATION":98.2837,"RA_OF_ASC_NODE":253.0653,"ARG_OF_PERICENTER":179.2606,"MEAN_ANOMALY":180.8612,"EPHEMERIS_TYPE":0,"CLASSIFICATION_TYPE":"U","NORAD_CAT_ID":39202,"ELEMENT_SET_NO":999,"REV_AT_EPOCH":67470,"BSTAR":0.00019288768,"MEAN_MOTION_DOT":9.8e-6,"MEAN_MOTION_DDOT":0},{"OBJECT_NAME":"FENGYUN 1C DEB","OBJECT_ID":"1999-025BWF","EPOCH":"2026-03-09T10:49:46.578720","MEAN_MOTION":14.76111569,"ECCENTRICITY":0.00569308,"INCLINATION":98.8607,"RA_OF_ASC_NODE":247.3448,"ARG_OF_PERICENTER":99.9612,"MEAN_ANOMALY":260.8027,"EPHEMERIS_TYPE":0,"CLASSIFICATION_TYPE":"U","NORAD_CAT_ID":31492,"ELEMENT_SET_NO":999,"REV_AT_EPOCH":97783,"BSTAR":0.0038224651,"MEAN_MOTION_DOT":0.00027133,"MEAN_MOTION_DDOT":0}]
